{"type":"FeatureCollection","name":"marine_regions","features":[{"type":"Feature","properties":{"name":"Arctic Ocean","name_ko":"북극해","featurecla":"ocean"},"geometry":{"type":"Point","coordinates":[-0.00005149999999787269,80.6042095]}},{"type":"Feature","properties":{"name":"SOUTHERN OCEAN","name_ko":"남극해","featurecla":"ocean"},"geometry":{"type":"Point","coordinates":[-0.00005149999999787269,-66.39636]}},{"type":"Feature","properties":{"name":"North Atlantic Ocean","name_ko":"대서양","featurecla":"ocean"},"geometry":{"type":"Point","coordinates":[-37.4817895,34.22972]}},{"type":"Feature","properties":{"name":"North Pacific Ocean","name_ko":"태평양","featurecla":"ocean"},"geometry":{"type":"Point","coordinates":[-0.00005149999999787269,29.09046]}},{"type":"Feature","properties":{"name":"South Pacific Ocean","name_ko":"태평양","featurecla":"ocean"},"geometry":{"type":"Point","coordinates":[-0.00005149999999787269,-28.44108]}},{"type":"Feature","properties":{"name":"INDIAN OCEAN","name_ko":"인도양","featurecla":"ocean"},"geometry":{"type":"Point","coordinates":[92.841109,-25.051235]}},{"type":"Feature","properties":{"name":"South Atlantic Ocean","name_ko":"대서양","featurecla":"ocean"},"geometry":{"type":"Point","coordinates":[-24.728614,-30.2502975]}},{"type":"Feature","properties":{"name":"Black Sea","name_ko":"흑해","featurecla":"sea"},"geometry":{"type":"Point","coordinates":[34.623758,44.068782999999996]}},{"type":"Feature","properties":{"name":"Philippine Sea","name_ko":"필리핀해","featurecla":"sea"},"geometry":{"type":"Point","coordinates":[133.56392,18.872776]}},{"type":"Feature","properties":{"name":"Great Barrier Reef","name_ko":"그레이트배리어리프","featurecla":"reef"},"geometry":{"type":"Point","coordinates":[148.1037255,-16.9965675]}},{"type":"Feature","properties":{"name":"Tasman Sea","name_ko":"태즈먼해","featurecla":"sea"},"geometry":{"type":"Point","coordinates":[160.80727000000002,-40.333816999999996]}},{"type":"Feature","properties":{"name":"Bay of Bengal","name_ko":"벵골만","featurecla":"bay"},"geometry":{"type":"Point","coordinates":[87.46422749999999,14.556631]}},{"type":"Feature","properties":{"name":"South China Sea","name_ko":"남중국해","featurecla":"sea"},"geometry":{"type":"Point","coordinates":[112.307569,10.2701225]}},{"type":"Feature","properties":{"name":"Arabian Sea","name_ko":"아라비아해","featurecla":"sea"},"geometry":{"type":"Point","coordinates":[62.6889185,12.4605965]}},{"type":"Feature","properties":{"name":"Beaufort Sea","name_ko":"보퍼트해","featurecla":"sea"},"geometry":{"type":"Point","coordinates":[-139.536348,72.79219800000001]}},{"type":"Feature","properties":{"name":"Caribbean Sea","name_ko":"카리브해","featurecla":"sea"},"geometry":{"type":"Point","coordinates":[-73.77892800000001,15.591413]}},{"type":"Feature","properties":{"name":"Gulf of Mexico","name_ko":"멕시코만","featurecla":"gulf"},"geometry":{"type":"Point","coordinates":[-88.876572,25.7471755]}},{"type":"Feature","properties":{"name":"Labrador Sea","name_ko":"래브라도해","featurecla":"sea"},"geometry":{"type":"Point","coordinates":[-54.356121,53.8898635]}},{"type":"Feature","properties":{"name":"Hudson Bay","name_ko":"허드슨만","featurecla":"bay"},"geometry":{"type":"Point","coordinates":[-85.738353,60.361561]}},{"type":"Feature","properties":{"name":"Caspian Sea","name_ko":"카스피해","featurecla":"sea"},"geometry":{"type":"Point","coordinates":[50.3654325,41.862432]}},{"type":"Feature","properties":{"name":"Baffin Bay","name_ko":"배핀만","featurecla":"bay"},"geometry":{"type":"Point","coordinates":[-68.1615575,74.2836705]}},{"type":"Feature","properties":{"name":"Gulf of Alaska","name_ko":"알래스카만","featurecla":"gulf"},"geometry":{"type":"Point","coordinates":[-149.98686,57.358540500000004]}},{"type":"Feature","properties":{"name":"Red Sea","name_ko":"홍해","featurecla":"sea"},"geometry":{"type":"Point","coordinates":[38.6586795,20.2959835]}},{"type":"Feature","properties":{"name":"Sea of Okhotsk","name_ko":"오호츠크해","featurecla":"sea"},"geometry":{"type":"Point","coordinates":[147.178851,51.5250075]}},{"type":"Feature","properties":{"name":"Weddell Sea","name_ko":"웨들해","featurecla":"sea"},"geometry":{"type":"Point","coordinates":[-47.368744,-77.2955915]}},{"type":"Feature","properties":{"name":"Persian Gulf","name_ko":"페르시아만","featurecla":"gulf"},"geometry":{"type":"Point","coordinates":[52.4630305,27.240495000000003]}},{"type":"Feature","properties":{"name":"Celebes Sea","name_ko":"술라웨시해","featurecla":"sea"},"geometry":{"type":"Point","coordinates":[121.3457255,4.3352395]}},{"type":"Feature","properties":{"name":"Sulu Sea","name_ko":"술루해","featurecla":"sea"},"geometry":{"type":"Point","coordinates":[120.0817715,8.945087000000001]}},{"type":"Feature","properties":{"name":"Norwegian Sea","name_ko":"노르웨이해","featurecla":"sea"},"geometry":{"type":"Point","coordinates":[6.8726995,68.52475849999999]}},{"type":"Feature","properties":{"name":"Greenland Sea","name_ko":"그린란드해","featurecla":"sea"},"geometry":{"type":"Point","coordinates":[-7.0343325,74.27256]}},{"type":"Feature","properties":{"name":"Banda Sea","name_ko":"반다해","featurecla":"sea"},"geometry":{"type":"Point","coordinates":[126.6842365,-4.811928]}},{"type":"Feature","properties":{"name":"Luzon Strait","name_ko":"루손 해협","featurecla":"strait"},"geometry":{"type":"Point","coordinates":[120.867797,22.059286999999998]}},{"type":"Feature","properties":{"name":"Bay of Biscay","name_ko":"비스케이만","featurecla":"bay"},"geometry":{"type":"Point","coordinates":[-4.2739455,45.8967985]}},{"type":"Feature","properties":{"name":"Mozambique Channel","name_ko":"모잠비크 해협","featurecla":"channel"},"geometry":{"type":"Point","coordinates":[40.9235025,-18.616021]}},{"type":"Feature","properties":{"name":"Gulf of Guinea","name_ko":"기니만","featurecla":"gulf"},"geometry":{"type":"Point","coordinates":[1.2368035000000006,2.5506455]}},{"type":"Feature","properties":{"name":"Scotia Sea","name_ko":"스코샤해","featurecla":"sea"},"geometry":{"type":"Point","coordinates":[-54.7918655,-61.171071999999995]}},{"type":"Feature","properties":{"name":"Baltic Sea","name_ko":"발트해","featurecla":"sea"},"geometry":{"type":"Point","coordinates":[17.768894,56.873557500000004]}},{"type":"Feature","properties":{"name":"Barents Sea","name_ko":"바렌츠해","featurecla":"sea"},"geometry":{"type":"Point","coordinates":[42.982214,74.3310315]}},{"type":"Feature","properties":{"name":"North Sea","name_ko":"북해","featurecla":"sea"},"geometry":{"type":"Point","coordinates":[2.824549,55.8004055]}},{"type":"Feature","properties":{"name":"Bristol Channel","name_ko":"브리스틀 해협","featurecla":"channel"},"geometry":{"type":"Point","coordinates":[-4.418136,50.930754500000006]}},{"type":"Feature","properties":{"name":"Inner Seas","name_ko":"이너 씨스","featurecla":"sea"},"geometry":{"type":"Point","coordinates":[-6.41521,56.5740535]}},{"type":"Feature","properties":{"name":"Irish Sea","name_ko":"아일랜드해","featurecla":"sea"},"geometry":{"type":"Point","coordinates":[-4.6864265000000005,53.3217975]}},{"type":"Feature","properties":{"name":"Java Sea","name_ko":"자와해","featurecla":"sea"},"geometry":{"type":"Point","coordinates":[112.03608700000001,-5.14767]}},{"type":"Feature","properties":{"name":"Andaman Sea","name_ko":"안다만해","featurecla":"sea"},"geometry":{"type":"Point","coordinates":[95.5380245,11.040592499999999]}},{"type":"Feature","properties":{"name":"Yellow Sea","name_ko":"황해","featurecla":"sea"},"geometry":{"type":"Point","coordinates":[123.071098,35.984716000000006]}},{"type":"Feature","properties":{"name":"East China Sea","name_ko":"동중국해","featurecla":"sea"},"geometry":{"type":"Point","coordinates":[124.996717,28.4636635]}},{"type":"Feature","properties":{"name":"Chukchi Sea","name_ko":"축치해","featurecla":"sea"},"geometry":{"type":"Point","coordinates":[-0.00005149999999787269,68.5350675]}},{"type":"Feature","properties":{"name":"Bahía de Campeche","name_ko":"캄페체 만","featurecla":"bay"},"geometry":{"type":"Point","coordinates":[-93.7740125,19.587681]}},{"type":"Feature","properties":{"name":"Arafura Sea","name_ko":"아라푸라해","featurecla":"sea"},"geometry":{"type":"Point","coordinates":[136.471159,-7.7398115]}},{"type":"Feature","properties":{"name":"Timor Sea","name_ko":"티모르해","featurecla":"sea"},"geometry":{"type":"Point","coordinates":[127.80791500000001,-10.987313499999999]}},{"type":"Feature","properties":{"name":"Gulf of Thailand","name_ko":"타이만","featurecla":"gulf"},"geometry":{"type":"Point","coordinates":[102.127725,9.863197]}},{"type":"Feature","properties":{"name":"Laccadive Sea","name_ko":"라카디브 해","featurecla":"sea"},"geometry":{"type":"Point","coordinates":[75.7955855,6.937949000000001]}},{"type":"Feature","properties":{"name":"Bellingshausen Sea","name_ko":"벨링스하우젠해","featurecla":"sea"},"geometry":{"type":"Point","coordinates":[-82.6141505,-71.39882]}},{"type":"Feature","properties":{"name":"Amundsen Sea","name_ko":"아문센해","featurecla":"sea"},"geometry":{"type":"Point","coordinates":[-106.5906975,-73.71575849999999]}},{"type":"Feature","properties":{"name":"Davis Strait","name_ko":"데이비스 해협","featurecla":"strait"},"geometry":{"type":"Point","coordinates":[-57.042700999999994,65.06849650000001]}},{"type":"Feature","properties":{"name":"Kara Sea","name_ko":"카라해","featurecla":"sea"},"geometry":{"type":"Point","coordinates":[78.80682300000001,74.797489]}},{"type":"Feature","properties":{"name":"Laptev Sea","name_ko":"랍테프해","featurecla":"sea"},"geometry":{"type":"Point","coordinates":[117.51562299999999,76.00478000000001]}},{"type":"Feature","properties":{"name":"Drake Passage","name_ko":"드레이크 해협","featurecla":"channel"},"geometry":{"type":"Point","coordinates":[-63.834444500000004,-61.197293]}},{"type":"Feature","properties":{"name":"Great Australian Bight","name_ko":"그레이트오스트레일리아만","featurecla":"gulf"},"geometry":{"type":"Point","coordinates":[132.131191,-37.4564985]}},{"type":"Feature","properties":{"name":"Gulf of Aden","name_ko":"아덴만","featurecla":"gulf"},"geometry":{"type":"Point","coordinates":[46.894636500000004,12.8199025]}},{"type":"Feature","properties":{"name":"Gulf of Oman","name_ko":"오만만","featurecla":"gulf"},"geometry":{"type":"Point","coordinates":[58.851659,24.370037500000002]}},{"type":"Feature","properties":{"name":"Tyrrhenian Sea","name_ko":"티레니아해","featurecla":"sea"},"geometry":{"type":"Point","coordinates":[12.5562155,40.9112495]}},{"type":"Feature","properties":{"name":"White Sea","name_ko":"백해","featurecla":"sea"},"geometry":{"type":"Point","coordinates":[38.191964,66.243244]}},{"type":"Feature","properties":{"name":"Sea of Azov","name_ko":"아조프해","featurecla":"sea"},"geometry":{"type":"Point","coordinates":[37.068518,46.272240499999995]}},{"type":"Feature","properties":{"name":"James Bay","name_ko":"제임스만","featurecla":"bay"},"geometry":{"type":"Point","coordinates":[-80.4361055,52.800834]}},{"type":"Feature","properties":{"name":"Gulf of Carpentaria","name_ko":"카펀테리아만","featurecla":"gulf"},"geometry":{"type":"Point","coordinates":[138.667459,-14.965314]}},{"type":"Feature","properties":{"name":"Golfo de California","name_ko":"캘리포니아 만","featurecla":"gulf"},"geometry":{"type":"Point","coordinates":[-110.92801700000001,27.583136000000003]}},{"type":"Feature","properties":{"name":"Hudson Strait","name_ko":"허드슨 해협","featurecla":"strait"},"geometry":{"type":"Point","coordinates":[-72.85288650000001,62.559721999999994]}},{"type":"Feature","properties":{"name":"Gulf of Finland","name_ko":"핀란드만","featurecla":"gulf"},"geometry":{"type":"Point","coordinates":[26.556369,59.874201]}},{"type":"Feature","properties":{"name":"English Channel","name_ko":"영국 해협","featurecla":"channel"},"geometry":{"type":"Point","coordinates":[-2.429278,49.791715499999995]}},{"type":"Feature","properties":{"name":"Gulf of Honduras","name_ko":"온두라스만","featurecla":"gulf"},"geometry":{"type":"Point","coordinates":[-87.9092535,16.506874]}},{"type":"Feature","properties":{"name":"Golfe du Lion","name_ko":"리옹만","featurecla":"gulf"},"geometry":{"type":"Point","coordinates":[4.2242695,42.7773635]}},{"type":"Feature","properties":{"name":"Gulf of Bothnia","name_ko":"보트니아만","featurecla":"gulf"},"geometry":{"type":"Point","coordinates":[21.2517575,62.767151]}},{"type":"Feature","properties":{"name":"Adriatic Sea","name_ko":"아드리아해","featurecla":"sea"},"geometry":{"type":"Point","coordinates":[16.111942,42.7572485]}},{"type":"Feature","properties":{"name":"Straits of Florida","name_ko":"플로리다 해협","featurecla":"strait"},"geometry":{"type":"Point","coordinates":[-80.59723249999999,24.834117499999998]}},{"type":"Feature","properties":{"name":"Bay of Plenty","name_ko":"베이오브플렌티 지방","featurecla":"bay"},"geometry":{"type":"Point","coordinates":[177.0222495,-37.3644115]}},{"type":"Feature","properties":{"name":"The North Western Passages","name_ko":"북서항로","featurecla":"channel"},"geometry":{"type":"Point","coordinates":[-98.566149,73.392549]}},{"type":"Feature","properties":{"name":"Queen Charlotte Sound","name_ko":"퀸 샬럿 사운드","featurecla":"sound"},"geometry":{"type":"Point","coordinates":[-129.462906,52.0127945]}},{"type":"Feature","properties":{"name":"Ionian Sea","name_ko":"이오니아해","featurecla":"sea"},"geometry":{"type":"Point","coordinates":[19.141421,38.488193499999994]}},{"type":"Feature","properties":{"name":"Gulf of Saint Lawrence","name_ko":"세인트로렌스만","featurecla":"gulf"},"geometry":{"type":"Point","coordinates":[-60.744491000000004,48.550021]}},{"type":"Feature","properties":{"name":"Molucca Sea","name_ko":"말루쿠해","featurecla":"sea"},"geometry":{"type":"Point","coordinates":[125.9735565,1.2184529999999998]}},{"type":"Feature","properties":{"name":"Bismarck Sea","name_ko":"비스마르크해","featurecla":"sea"},"geometry":{"type":"Point","coordinates":[147.33576699999998,-3.6840124999999997]}},{"type":"Feature","properties":{"name":"Solomon Sea","name_ko":"솔로몬해","featurecla":"sea"},"geometry":{"type":"Point","coordinates":[154.533751,-8.0255565]}},{"type":"Feature","properties":{"name":"Gulf of Tonkin","name_ko":"통킹만","featurecla":"gulf"},"geometry":{"type":"Point","coordinates":[107.858848,19.903863]}},{"type":"Feature","properties":{"name":"Bay of Fundy","name_ko":"펀디만","featurecla":"bay"},"geometry":{"type":"Point","coordinates":[-65.2773275,45.0466825]}},{"type":"Feature","properties":{"name":"Río de la Plata","name_ko":"라플라타강","featurecla":"gulf"},"geometry":{"type":"Point","coordinates":[-56.7299685,-34.4121885]}},{"type":"Feature","properties":{"name":"Strait of Malacca","name_ko":"믈라카 해협","featurecla":"strait"},"geometry":{"type":"Point","coordinates":[99.4776545,4.515164]}},{"type":"Feature","properties":{"name":"Strait of Singapore","name_ko":"싱가포르 해협","featurecla":"strait"},"geometry":{"type":"Point","coordinates":[103.932163,1.3359265]}},{"type":"Feature","properties":{"name":"Makassar Strait","name_ko":"마카사르 해협","featurecla":"strait"},"geometry":{"type":"Point","coordinates":[118.515097,-2.0163364999999995]}},{"type":"Feature","properties":{"name":"Ceram Sea","name_ko":"스람해","featurecla":"sea"},"geometry":{"type":"Point","coordinates":[129.907606,-3.2585604999999997]}},{"type":"Feature","properties":{"name":"Inner Sea","name_ko":"세토 내해","featurecla":"sea"},"geometry":{"type":"Point","coordinates":[133.137667,33.832328000000004]}},{"type":"Feature","properties":{"name":"Taiwan Strait","name_ko":"타이완 해협","featurecla":"strait"},"geometry":{"type":"Point","coordinates":[119.25921149999999,24.162595000000003]}},{"type":"Feature","properties":{"name":"Cook Inlet","name_ko":"쿡 인렛","featurecla":"bay"},"geometry":{"type":"Point","coordinates":[-151.6248995,60.194091]}},{"type":"Feature","properties":{"name":"Bristol Bay","name_ko":"브리스틀만","featurecla":"bay"},"geometry":{"type":"Point","coordinates":[-159.4703255,57.44453]}},{"type":"Feature","properties":{"name":"Melville Bay","name_ko":"멜빌 베이","featurecla":"bay"},"geometry":{"type":"Point","coordinates":[-61.667096,75.24332749999999]}},{"type":"Feature","properties":{"name":"Gulf of Maine","name_ko":"메인만","featurecla":"gulf"},"geometry":{"type":"Point","coordinates":[-68.28352699999999,43.191162500000004]}},{"type":"Feature","properties":{"name":"Chesapeake Bay","name_ko":"체서피크만","featurecla":"bay"},"geometry":{"type":"Point","coordinates":[-76.4863985,38.2373695]}},{"type":"Feature","properties":{"name":"Strait of Gibraltar","name_ko":"지브롤터 해협","featurecla":"strait"},"geometry":{"type":"Point","coordinates":[-5.659313,35.9841605]}},{"type":"Feature","properties":{"name":"Golfo San Jorge","name_ko":"골포 산 호르헤","featurecla":"gulf"},"geometry":{"type":"Point","coordinates":[-66.6267025,-46.0655085]}},{"type":"Feature","properties":{"name":"Balearic Sea","name_ko":"발레아레스해","featurecla":"sea"},"geometry":{"type":"Point","coordinates":[1.976319,40.3111705]}},{"type":"Feature","properties":{"name":"Aegean Sea","name_ko":"에게해","featurecla":"sea"},"geometry":{"type":"Point","coordinates":[25.40569,38.753048500000006]}},{"type":"Feature","properties":{"name":"Gulf of Mannar","name_ko":"만나르만","featurecla":"gulf"},"geometry":{"type":"Point","coordinates":[78.6224155,8.292091000000001]}},{"type":"Feature","properties":{"name":"Shelikhova Gulf","name_ko":"셸리호바 걸프","featurecla":"gulf"},"geometry":{"type":"Point","coordinates":[159.78335349999998,60.236155499999995]}},{"type":"Feature","properties":{"name":"Bo Hai","name_ko":"보하이해","featurecla":"sea"},"geometry":{"type":"Point","coordinates":[119.91459800000001,39.0496325]}},{"type":"Feature","properties":{"name":"Gulf of Kutch","name_ko":"쿠치만","featurecla":"gulf"},"geometry":{"type":"Point","coordinates":[69.657511,22.687542999999998]}},{"type":"Feature","properties":{"name":"Golfo de Panamá","name_ko":"파나마만","featurecla":"gulf"},"geometry":{"type":"Point","coordinates":[-79.1131885,8.2600775]}},{"type":"Feature","properties":{"name":"Amundsen Gulf","name_ko":"아문센만","featurecla":"gulf"},"geometry":{"type":"Point","coordinates":[-122.58448849999999,70.6070345]}},{"type":"Feature","properties":{"name":"Viscount Melville Sound","name_ko":"비스카운트멜빌 해협","featurecla":"sound"},"geometry":{"type":"Point","coordinates":[-110.148814,73.85134500000001]}},{"type":"Feature","properties":{"name":"Ungava Bay","name_ko":"웅가바 베이","featurecla":"bay"},"geometry":{"type":"Point","coordinates":[-67.76970800000001,59.3709755]}},{"type":"Feature","properties":{"name":"Great Barrier Reef","name_ko":"그레이트배리어리프","featurecla":"reef"},"geometry":{"type":"Point","coordinates":[148.0376895,-17.60153]}},{"type":"Feature","properties":{"name":"Yucatan Channel","name_ko":"유카탄 해협","featurecla":"channel"},"geometry":{"type":"Point","coordinates":[-85.944196,21.652553]}},{"type":"Feature","properties":{"name":"Bering Sea","name_ko":"베링해","featurecla":"sea"},"geometry":{"type":"Point","coordinates":[-0.00005149999999787269,58.521376499999995]}},{"type":"Feature","properties":{"name":"East Siberian Sea","name_ko":"동시베리아해","featurecla":"sea"},"geometry":{"type":"Point","coordinates":[159.18535400000002,73.004149]}},{"type":"Feature","properties":{"name":"Lincoln Sea","name_ko":"링컨해","featurecla":"sea"},"geometry":{"type":"Point","coordinates":[-53.899185,82.5690945]}},{"type":"Feature","properties":{"name":"Bass Strait","name_ko":"배스 해협","featurecla":"strait"},"geometry":{"type":"Point","coordinates":[146.4986085,-39.473146]}},{"type":"Feature","properties":{"name":"Franklin Bay","name_ko":"프랭클린 베이","featurecla":"bay"},"geometry":{"type":"Point","coordinates":[-125.5295675,69.48730900000001]}},{"type":"Feature","properties":{"name":"Dixon Entrance","name_ko":"딕슨 엔트란스","featurecla":"channel"},"geometry":{"type":"Point","coordinates":[-132.3682585,54.3827665]}},{"type":"Feature","properties":{"name":"M'Clure Strait","name_ko":"맥클루어 스트레이트","featurecla":"strait"},"geometry":{"type":"Point","coordinates":[-119.51718249999999,74.8744865]}},{"type":"Feature","properties":{"name":"Boca Grande","name_ko":"보카 그란데","featurecla":"bay"},"geometry":{"type":"Point","coordinates":[-60.9746705,8.8842255]}},{"type":"Feature","properties":{"name":"Baía de Marajó","name_ko":"바이아 데 마라호","featurecla":"bay"},"geometry":{"type":"Point","coordinates":[-48.911801999999994,-1.4845345]}},{"type":"Feature","properties":{"name":"Golfo San Matías","name_ko":"골포 산 마티아스","featurecla":"gulf"},"geometry":{"type":"Point","coordinates":[-64.2790555,-41.5826815]}},{"type":"Feature","properties":{"name":"Golfo Corcovado","name_ko":"골포 코르코바도","featurecla":"gulf"},"geometry":{"type":"Point","coordinates":[-73.1603225,-43.491376]}},{"type":"Feature","properties":{"name":"Wrigley Gulf","name_ko":"리글리 걸프","featurecla":"gulf"},"geometry":{"type":"Point","coordinates":[-129.9113285,-74.097544]}},{"type":"Feature","properties":{"name":"Sulzberger Bay","name_ko":"슐츠베르거 베이","featurecla":"bay"},"geometry":{"type":"Point","coordinates":[-151.759581,-76.95853199999999]}},{"type":"Feature","properties":{"name":"Ronne Entrance","name_ko":"론 엔트란스","featurecla":"channel"},"geometry":{"type":"Point","coordinates":[-74.730627,-72.3896895]}},{"type":"Feature","properties":{"name":"Bransfield Strait","name_ko":"브랜스필드 스트레이트","featurecla":"strait"},"geometry":{"type":"Point","coordinates":[-58.994003500000005,-63.1580675]}},{"type":"Feature","properties":{"name":"McMurdo Sound","name_ko":"맥머도 만","featurecla":"sound"},"geometry":{"type":"Point","coordinates":[165.38482,-75.625823]}},{"type":"Feature","properties":{"name":"Baía de São Marcos","name_ko":"바이아 데 상 마르코스","featurecla":"bay"},"geometry":{"type":"Point","coordinates":[-44.0723045,-2.5796355]}},{"type":"Feature","properties":{"name":"Cumberland Sound","name_ko":"컴벌랜드 사운드","featurecla":"sound"},"geometry":{"type":"Point","coordinates":[-66.189882,65.1774945]}},{"type":"Feature","properties":{"name":"Frobisher Bay","name_ko":"프로비셔 베이","featurecla":"bay"},"geometry":{"type":"Point","coordinates":[-67.20534950000001,62.982254]}},{"type":"Feature","properties":{"name":"Disko Bay","name_ko":"디스코 베이","featurecla":"bay"},"geometry":{"type":"Point","coordinates":[-52.2820615,69.531751]}},{"type":"Feature","properties":{"name":"Hamilton Inlet","name_ko":"해밀턴 인렛","featurecla":"bay"},"geometry":{"type":"Point","coordinates":[-58.8961155,53.851222500000006]}},{"type":"Feature","properties":{"name":"Storfjorden","name_ko":"스토르피요르덴","featurecla":"fjord"},"geometry":{"type":"Point","coordinates":[19.315002,77.6261535]}},{"type":"Feature","properties":{"name":"Vestfjorden","name_ko":"베스트피요르덴","featurecla":"fjord"},"geometry":{"type":"Point","coordinates":[15.201248499999998,67.6532095]}},{"type":"Feature","properties":{"name":"Skagerrak","name_ko":"스카게라크 해협","featurecla":"fjord"},"geometry":{"type":"Point","coordinates":[9.2568565,58.30285]}},{"type":"Feature","properties":{"name":"Karskiye Strait","name_ko":"카르스키예 스트레이트","featurecla":"strait"},"geometry":{"type":"Point","coordinates":[58.200376500000004,70.520268]}},{"type":"Feature","properties":{"name":"Vil'kitskogo Strait","name_ko":"빌키츠스코고 스트레이트","featurecla":"strait"},"geometry":{"type":"Point","coordinates":[102.91457650000001,77.7655895]}},{"type":"Feature","properties":{"name":"Sognefjorden","name_ko":"송네 피오르","featurecla":"fjord"},"geometry":{"type":"Point","coordinates":[6.2374285,61.1854775]}},{"type":"Feature","properties":{"name":"Trondheimsfjorden","name_ko":"트론헤임스피요르덴","featurecla":"fjord"},"geometry":{"type":"Point","coordinates":[10.110679999999999,63.7199225]}},{"type":"Feature","properties":{"name":"Kattegat","name_ko":"카테가트 해협","featurecla":"sea"},"geometry":{"type":"Point","coordinates":[11.601339,57.0389215]}},{"type":"Feature","properties":{"name":"Gulf of Khambhät","name_ko":"캄바트만","featurecla":"gulf"},"geometry":{"type":"Point","coordinates":[71.98481050000001,21.0569195]}},{"type":"Feature","properties":{"name":"Palk Strait","name_ko":"포크 해협","featurecla":"strait"},"geometry":{"type":"Point","coordinates":[79.673592,9.6239995]}},{"type":"Feature","properties":{"name":"Kronotskiy Gulf","name_ko":"크로노츠키 걸프","featurecla":"gulf"},"geometry":{"type":"Point","coordinates":[160.6757795,53.851752000000005]}},{"type":"Feature","properties":{"name":"Uda Bay","name_ko":"우츠카야만","featurecla":"bay"},"geometry":{"type":"Point","coordinates":[136.7106015,55.131803000000005]}},{"type":"Feature","properties":{"name":"Uchiura Bay","name_ko":"우치우라만","featurecla":"bay"},"geometry":{"type":"Point","coordinates":[141.780292,41.4988755]}},{"type":"Feature","properties":{"name":"Tsugaru Strait","name_ko":"쓰가루 해협","featurecla":"strait"},"geometry":{"type":"Point","coordinates":[140.803969,41.322942999999995]}},{"type":"Feature","properties":{"name":"Tatar Strait","name_ko":"타타르 해협","featurecla":"strait"},"geometry":{"type":"Point","coordinates":[141.3567005,52.643402]}},{"type":"Feature","properties":{"name":"Shark Bay","name_ko":"샤크 베이","featurecla":"bay"},"geometry":{"type":"Point","coordinates":[113.8130585,-25.323751]}},{"type":"Feature","properties":{"name":"Gulf of Gabès","name_ko":"걸프 오브 가베스","featurecla":"gulf"},"geometry":{"type":"Point","coordinates":[10.613905500000001,34.446670499999996]}},{"type":"Feature","properties":{"name":"Mackenzie Bay","name_ko":"매켄지 베이","featurecla":"bay"},"geometry":{"type":"Point","coordinates":[-136.81484749999998,69.1684915]}},{"type":"Feature","properties":{"name":"Norton Sound","name_ko":"노턴 사운드","featurecla":"sound"},"geometry":{"type":"Point","coordinates":[-162.87100900000002,63.971005]}},{"type":"Feature","properties":{"name":"Kotzebue Sound","name_ko":"코체부 사운드","featurecla":"sound"},"geometry":{"type":"Point","coordinates":[-162.1539855,66.63668200000001]}},{"type":"Feature","properties":{"name":"Gulf of Boothia","name_ko":"걸프 오브 부티아","featurecla":"gulf"},"geometry":{"type":"Point","coordinates":[-88.874983,69.106312]}},{"type":"Feature","properties":{"name":"Kane Basin","name_ko":"케인 베이신","featurecla":"bay"},"geometry":{"type":"Point","coordinates":[-71.3804695,79.621639]}},{"type":"Feature","properties":{"name":"Foxe Basin","name_ko":"폭스 베이슨","featurecla":"bay"},"geometry":{"type":"Point","coordinates":[-79.48360550000001,67.1841165]}},{"type":"Feature","properties":{"name":"Golfo de Tehuantepec","name_ko":"골포 데 테우안테펙","featurecla":"gulf"},"geometry":{"type":"Point","coordinates":[-94.6188315,15.865001]}},{"type":"Feature","properties":{"name":"Golfo de Guayaquil","name_ko":"과야킬만","featurecla":"gulf"},"geometry":{"type":"Point","coordinates":[-80.3445605,-2.9016315]}},{"type":"Feature","properties":{"name":"Gulf of Masira","name_ko":"걸프 오브 마시라","featurecla":"gulf"},"geometry":{"type":"Point","coordinates":[58.1812345,19.809928499999998]}},{"type":"Feature","properties":{"name":"Gulf of Yana","name_ko":"걸프 오브 야나","featurecla":"gulf"},"geometry":{"type":"Point","coordinates":[136.87043649999998,73.201798]}},{"type":"Feature","properties":{"name":"Dmitriy Laptev Strait","name_ko":"드미트리랍테프 해협","featurecla":"strait"},"geometry":{"type":"Point","coordinates":[141.7361085,73.066587]}},{"type":"Feature","properties":{"name":"La Pérouse Strait","name_ko":"라페루즈 해협","featurecla":"strait"},"geometry":{"type":"Point","coordinates":[141.883853,45.7158795]}},{"type":"Feature","properties":{"name":"East Korea Bay","name_ko":"동조선만","featurecla":"bay"},"geometry":{"type":"Point","coordinates":[127.848145,39.367675]}},{"type":"Feature","properties":{"name":"Qiongzhou Strait","name_ko":"충저우 해협","featurecla":"strait"},"geometry":{"type":"Point","coordinates":[110.214441,20.196752]}},{"type":"Feature","properties":{"name":"Cook Strait","name_ko":"쿡 해협","featurecla":"strait"},"geometry":{"type":"Point","coordinates":[174.64099950000002,-41.269651499999995]}},{"type":"Feature","properties":{"name":"Torres Strait","name_ko":"토러스 해협","featurecla":"strait"},"geometry":{"type":"Point","coordinates":[142.1316655,-10.1038535]}},{"type":"Feature","properties":{"name":"Geographe Bay","name_ko":"지오그래프 베이","featurecla":"bay"},"geometry":{"type":"Point","coordinates":[115.377252,-31.975645]}},{"type":"Feature","properties":{"name":"Gulf of Papua","name_ko":"파푸아만","featurecla":"gulf"},"geometry":{"type":"Point","coordinates":[144.41659099999998,-8.2015145]}},{"type":"Feature","properties":{"name":"Gulf of Olen‘k","name_ko":"걸프 오브 올렌크","featurecla":"gulf"},"geometry":{"type":"Point","coordinates":[120.9996485,73.2174045]}},{"type":"Feature","properties":{"name":"Gulf of Riga","name_ko":"리가만","featurecla":"gulf"},"geometry":{"type":"Point","coordinates":[23.14482,57.99857900000001]}},{"type":"Feature","properties":{"name":"Waddenzee","name_ko":"바덴해","featurecla":"lagoon"},"geometry":{"type":"Point","coordinates":[5.3989785,53.1656955]}},{"type":"Feature","properties":{"name":"Gulf of Sidra","name_ko":"시드라만","featurecla":"gulf"},"geometry":{"type":"Point","coordinates":[17.754994,31.2076565]}},{"type":"Feature","properties":{"name":"Sea of Crete","name_ko":"크레타만","featurecla":"sea"},"geometry":{"type":"Point","coordinates":[25.430572499999997,36.5789695]}},{"type":"Feature","properties":{"name":"Ligurian Sea","name_ko":"리구리아해","featurecla":"sea"},"geometry":{"type":"Point","coordinates":[8.793319,43.721918]}},{"type":"Feature","properties":{"name":"Alboran Sea","name_ko":"알보란해","featurecla":"sea"},"geometry":{"type":"Point","coordinates":[-3.4336349999999998,35.957986]}},{"type":"Feature","properties":{"name":"Bight of Benin","name_ko":"베냉만","featurecla":"bay"},"geometry":{"type":"Point","coordinates":[3.265362,5.6253675]}},{"type":"Feature","properties":{"name":"Bight of Biafra","name_ko":"보니만","featurecla":"bay"},"geometry":{"type":"Point","coordinates":[8.2858305,3.934398]}},{"type":"Feature","properties":{"name":"Strait of Belle Isle","name_ko":"벨아일 해협","featurecla":"strait"},"geometry":{"type":"Point","coordinates":[-56.210323,51.706520999999995]}},{"type":"Feature","properties":{"name":"Prince William Sound","name_ko":"프린스 윌리엄 해협","featurecla":"sound"},"geometry":{"type":"Point","coordinates":[-147.15740749999998,60.581160499999996]}},{"type":"Feature","properties":{"name":"Estrecho de Magellanes","name_ko":"마젤란 해협","featurecla":"strait"},"geometry":{"type":"Point","coordinates":[-71.665426,-53.1716635]}},{"type":"Feature","properties":{"name":"Bahía Blanca","name_ko":"바이아 블랑카","featurecla":"bay"},"geometry":{"type":"Point","coordinates":[-61.891191,-39.132624]}},{"type":"Feature","properties":{"name":"Golfo de Penas","name_ko":"골포 데 페나스","featurecla":"gulf"},"geometry":{"type":"Point","coordinates":[-74.849431,-47.134151]}},{"type":"Feature","properties":{"name":"Bahía Grande","name_ko":"바이아 그란데","featurecla":"bay"},"geometry":{"type":"Point","coordinates":[-68.6878045,-51.026962499999996]}},{"type":"Feature","properties":{"name":"Marguerite Bay","name_ko":"마거리트만","featurecla":"bay"},"geometry":{"type":"Point","coordinates":[-68.5391185,-68.3555945]}},{"type":"Feature","properties":{"name":"Prydz Bay","name_ko":"프리츠 베이","featurecla":"bay"},"geometry":{"type":"Point","coordinates":[72.8182485,-70.5426445]}},{"type":"Feature","properties":{"name":"Vincennes Bay","name_ko":"뱅센 베이","featurecla":"bay"},"geometry":{"type":"Point","coordinates":[107.67867849999999,-66.4831255]}},{"type":"Feature","properties":{"name":"Porpoise Bay","name_ko":"폴포스 베이","featurecla":"bay"},"geometry":{"type":"Point","coordinates":[128.5011285,-66.6638375]}},{"type":"Feature","properties":{"name":"Davis Sea","name_ko":"데이비스 씨","featurecla":"sea"},"geometry":{"type":"Point","coordinates":[98.3515735,-65.253355]}},{"type":"Feature","properties":{"name":"Lützow-Holm Bay","name_ko":"루초우-홈 베이","featurecla":"bay"},"geometry":{"type":"Point","coordinates":[37.212204,-69.450153]}},{"type":"Feature","properties":{"name":"Antongila Bay","name_ko":"안통길라 베이","featurecla":"bay"},"geometry":{"type":"Point","coordinates":[49.922255500000006,-15.844252000000001]}},{"type":"Feature","properties":{"name":"Hangzhou Bay","name_ko":"항저우만","featurecla":"bay"},"geometry":{"type":"Point","coordinates":[121.104681,30.399889]}},{"type":"Feature","properties":{"name":"Karaginskiy Gulf","name_ko":"카라긴스키 걸프","featurecla":"gulf"},"geometry":{"type":"Point","coordinates":[164.1561095,59.098447]}},{"type":"Feature","properties":{"name":"Gulf of Kamchatka","name_ko":"걸프 오브 캄차카","featurecla":"gulf"},"geometry":{"type":"Point","coordinates":[162.3812565,55.673411]}},{"type":"Feature","properties":{"name":"Bosporus","name_ko":"보스포루스 해협","featurecla":"strait"},"geometry":{"type":"Point","coordinates":[29.0453125,41.110217000000006]}},{"type":"Feature","properties":{"name":"Bab el Mandeb","name_ko":"바브엘만데브 해협","featurecla":"strait"},"geometry":{"type":"Point","coordinates":[43.4673525,12.7062745]}},{"type":"Feature","properties":{"name":"Gulf St. Vincent","name_ko":"걸프 세인트 빈센트","featurecla":"gulf"},"geometry":{"type":"Point","coordinates":[137.09001,-34.2314765]}},{"type":"Feature","properties":{"name":"Golfo de Urabá","name_ko":"골포 데 우라바","featurecla":"gulf"},"geometry":{"type":"Point","coordinates":[-77.001819,8.245789]}},{"type":"Feature","properties":{"name":"Baia de Maputo","name_ko":"바이아 데 마푸토","featurecla":"bay"},"geometry":{"type":"Point","coordinates":[32.790123,-25.867258]}},{"type":"Feature","properties":{"name":"St. Helena Bay","name_ko":"세인트 헬레나 베이","featurecla":"bay"},"geometry":{"type":"Point","coordinates":[18.133679,-32.179976]}},{"type":"Feature","properties":{"name":"Boknafjorden","name_ko":"보크나피오르","featurecla":"fjord"},"geometry":{"type":"Point","coordinates":[5.8823595,59.215649]}},{"type":"Feature","properties":{"name":"Joseph Bonaparte Gulf","name_ko":"조셉 보나파르트 걸프","featurecla":"gulf"},"geometry":{"type":"Point","coordinates":[128.443173,-14.470021]}},{"type":"Feature","properties":{"name":"Gulf of Martaban","name_ko":"마르타반만","featurecla":"gulf"},"geometry":{"type":"Point","coordinates":[96.6587565,16.1729665]}},{"type":"Feature","properties":{"name":"Gulf of Sakhalin","name_ko":"사할린스키만","featurecla":"gulf"},"geometry":{"type":"Point","coordinates":[141.2312555,53.792479]}},{"type":"Feature","properties":{"name":"Kangertittivaq","name_ko":"캉게르티티바크","featurecla":"fjord"},"geometry":{"type":"Point","coordinates":[-25.348537999999998,70.811014]}},{"type":"Feature","properties":{"name":"Saint Lawrence River","name_ko":"세인트로렌스강","featurecla":"channel"},"geometry":{"type":"Point","coordinates":[-69.614117,47.662104]}},{"type":"Feature","properties":{"name":"Chaun Bay","name_ko":"차운 베이","featurecla":"bay"},"geometry":{"type":"Point","coordinates":[169.57342749999998,69.3116095]}},{"type":"Feature","properties":{"name":"Khatanga Gulf","name_ko":"카탕가 걸프","featurecla":"gulf"},"geometry":{"type":"Point","coordinates":[109.377825,74.034422]}},{"type":"Feature","properties":{"name":"Garabogaz Bay","name_ko":"가라보가즈쾰","featurecla":"bay"},"geometry":{"type":"Point","coordinates":[53.7690235,41.392525500000005]}},{"type":"Feature","properties":{"name":"Gulf of Suez","name_ko":"수에즈만","featurecla":"gulf"},"geometry":{"type":"Point","coordinates":[33.2826255,28.598074]}},{"type":"Feature","properties":{"name":"Gulf of Ob","name_ko":"오비만","featurecla":"gulf"},"geometry":{"type":"Point","coordinates":[73.9681265,69.60902]}},{"type":"Feature","properties":{"name":"Yenisey Gulf","name_ko":"예니세이 걸프","featurecla":"gulf"},"geometry":{"type":"Point","coordinates":[80.9248075,71.722509]}},{"type":"Feature","properties":{"name":"Dardanelles","name_ko":"다르다넬스 해협","featurecla":"channel"},"geometry":{"type":"Point","coordinates":[26.460587,40.2087865]}},{"type":"Feature","properties":{"name":"Sea of Marmara","name_ko":"마르마라해","featurecla":"sea"},"geometry":{"type":"Point","coordinates":[28.2645075,40.700384]}},{"type":"Feature","properties":{"name":"Gulf of Aqaba","name_ko":"아카바만","featurecla":"gulf"},"geometry":{"type":"Point","coordinates":[34.6854335,28.7655575]}},{"type":"Feature","properties":{"name":"Lago de Maracaibo","name_ko":"마라카이보호","featurecla":"lagoon"},"geometry":{"type":"Point","coordinates":[-71.582615,9.913194]}},{"type":"Feature","properties":{"name":"Denmark Strait","name_ko":"덴마크 해협","featurecla":"strait"},"geometry":{"type":"Point","coordinates":[-26.378294,66.6485935]}},{"type":"Feature","properties":{"name":"Massachusetts Bay","name_ko":"매사추세츠만","featurecla":"bay"},"geometry":{"type":"Point","coordinates":[-70.523752,42.176224500000004]}},{"type":"Feature","properties":{"name":"Delaware Bay","name_ko":"델라웨어 베이","featurecla":"bay"},"geometry":{"type":"Point","coordinates":[-75.242327,39.3803615]}},{"type":"Feature","properties":{"name":"Long Island Sound","name_ko":"롱아일랜드 해협","featurecla":"sound"},"geometry":{"type":"Point","coordinates":[-73.04284849999999,41.062326]}},{"type":"Feature","properties":{"name":"Albemarle Sound","name_ko":"앨버말 사운드","featurecla":"sound"},"geometry":{"type":"Point","coordinates":[-76.18080950000001,36.174949999999995]}},{"type":"Feature","properties":{"name":"Pamlico Sound","name_ko":"팜리코 사운드","featurecla":"sound"},"geometry":{"type":"Point","coordinates":[-76.275791,35.296528]}},{"type":"Feature","properties":{"name":"Smith Sound","name_ko":"스미스 사운드","featurecla":"sound"},"geometry":{"type":"Point","coordinates":[-127.39674049999999,52.070000500000006]}},{"type":"Feature","properties":{"name":"Queen Charlotte Strait","name_ko":"퀸 샬럿 스트레이트","featurecla":"strait"},"geometry":{"type":"Point","coordinates":[-126.38251299999999,50.582003]}},{"type":"Feature","properties":{"name":"Baird Inlet","name_ko":"베어드 인렛","featurecla":"inlet"},"geometry":{"type":"Point","coordinates":[-164.113491,60.779869000000005]}},{"type":"Feature","properties":{"name":"Husky Lakes","name_ko":"허스키 레이크스","featurecla":"lagoon"},"geometry":{"type":"Point","coordinates":[-132.52489,69.153402]}},{"type":"Feature","properties":{"name":"Lake Pontchartrain","name_ko":"폰차트레인 호","featurecla":"lagoon"},"geometry":{"type":"Point","coordinates":[-90.0706465,30.204358]}},{"type":"Feature","properties":{"name":"Stettiner Haff","name_ko":"스테티너 하프","featurecla":"lagoon"},"geometry":{"type":"Point","coordinates":[14.1939715,53.849633499999996]}},{"type":"Feature","properties":{"name":"Darnley Bay","name_ko":"단리 베이","featurecla":"bay"},"geometry":{"type":"Point","coordinates":[-123.7843895,69.5637775]}},{"type":"Feature","properties":{"name":"Prince of Wales Strait","name_ko":"프린스오브웨일스 해협","featurecla":"strait"},"geometry":{"type":"Point","coordinates":[-117.5571475,72.554887]}},{"type":"Feature","properties":{"name":"Minto Inlet","name_ko":"민토 인렛","featurecla":"sound"},"geometry":{"type":"Point","coordinates":[-116.813407,71.279319]}},{"type":"Feature","properties":{"name":"Richard Collinson Inlet","name_ko":"리처드 콜린슨 인렛","featurecla":"bay"},"geometry":{"type":"Point","coordinates":[-113.846366,72.8983025]}},{"type":"Feature","properties":{"name":"Prince ALbert Sound","name_ko":"프린스 앨버트 사운드","featurecla":"sound"},"geometry":{"type":"Point","coordinates":[-114.610221,70.3781725]}},{"type":"Feature","properties":{"name":"Liddon Gulf","name_ko":"리돈 걸프","featurecla":"gulf"},"geometry":{"type":"Point","coordinates":[-113.03753900000001,75.056517]}},{"type":"Feature","properties":{"name":"Wynniatt Bay","name_ko":"위니엇 베이","featurecla":"bay"},"geometry":{"type":"Point","coordinates":[-111.0462785,72.631342]}},{"type":"Feature","properties":{"name":"Hadley Bay","name_ko":"해들리 베이","featurecla":"bay"},"geometry":{"type":"Point","coordinates":[-108.022626,72.36040299999999]}},{"type":"Feature","properties":{"name":"Bathurst Inlet","name_ko":"배서스트 인렛","featurecla":"bay"},"geometry":{"type":"Point","coordinates":[-107.826294,67.04917649999999]}},{"type":"Feature","properties":{"name":"Goldsmith Channel","name_ko":"골드스미스 채널","featurecla":"channel"},"geometry":{"type":"Point","coordinates":[-106.167411,73.1112845]}},{"type":"Feature","properties":{"name":"Sherman Basin","name_ko":"셔먼 베이신","featurecla":"bay"},"geometry":{"type":"Point","coordinates":[-97.777424,67.8262475]}},{"type":"Feature","properties":{"name":"Wager Bay","name_ko":"웨이저 베이","featurecla":"bay"},"geometry":{"type":"Point","coordinates":[-89.55259050000001,65.618566]}},{"type":"Feature","properties":{"name":"Fury and Hecla Strait","name_ko":"퓨리 헤클라 해협","featurecla":"strait"},"geometry":{"type":"Point","coordinates":[-83.9661745,69.87835749999999]}},{"type":"Feature","properties":{"name":"Jones Sound","name_ko":"존스 사운드","featurecla":"sound"},"geometry":{"type":"Point","coordinates":[-84.9459335,76.0838965]}},{"type":"Feature","properties":{"name":"Eclipse Sound","name_ko":"이클립스 사운드","featurecla":"sound"},"geometry":{"type":"Point","coordinates":[-79.127206,72.5797565]}},{"type":"Feature","properties":{"name":"Hall Basin","name_ko":"홀 베이신","featurecla":"gulf"},"geometry":{"type":"Point","coordinates":[-64.910619,81.4597105]}},{"type":"Feature","properties":{"name":"Uummannaq Fjord","name_ko":"움만나크 피요르드","featurecla":"fjord"},"geometry":{"type":"Point","coordinates":[-52.722319,71.3632025]}},{"type":"Feature","properties":{"name":"Peacock Sound","name_ko":"피콕 사운드","featurecla":"sound"},"geometry":{"type":"Point","coordinates":[-99.0069355,-72.71644]}},{"type":"Feature","properties":{"name":"George VI Sound","name_ko":"조지 VI 코스트","featurecla":"sound"},"geometry":{"type":"Point","coordinates":[-70.7478595,-71.5901]}},{"type":"Feature","properties":{"name":"Seno de Skyring","name_ko":"세노 데 스카이링","featurecla":"sound"},"geometry":{"type":"Point","coordinates":[-72.32132899999999,-52.876926999999995]}},{"type":"Feature","properties":{"name":"Seno Otway","name_ko":"세노 오트웨이","featurecla":"sound"},"geometry":{"type":"Point","coordinates":[-71.85090600000001,-53.1438875]}},{"type":"Feature","properties":{"name":"Bay Inútil","name_ko":"베이 이누틸","featurecla":"bay"},"geometry":{"type":"Point","coordinates":[-69.837153,-53.936294000000004]}},{"type":"Feature","properties":{"name":"Lagoa dos Patos","name_ko":"라고아 도스 파토스","featurecla":"lagoon"},"geometry":{"type":"Point","coordinates":[-51.370036999999996,-31.059112]}},{"type":"Feature","properties":{"name":"Amazon River","name_ko":"아마존강","featurecla":"river"},"geometry":{"type":"Point","coordinates":[-51.2009645,-1.122756]}},{"type":"Feature","properties":{"name":"Bras d'Or Lake","name_ko":"브라스 도르 레이크","featurecla":"lagoon"},"geometry":{"type":"Point","coordinates":[-60.783119,45.9587065]}},{"type":"Feature","properties":{"name":"Kaliningrad","name_ko":"칼리닌그라드","featurecla":"lagoon"},"geometry":{"type":"Point","coordinates":[20.916248000000003,55.271769]}},{"type":"Feature","properties":{"name":"Matochkin Shar Strait","name_ko":"마토치킨 해협","featurecla":"strait"},"geometry":{"type":"Point","coordinates":[55.3176365,73.331958]}},{"type":"Feature","properties":{"name":"Ozero Mogotoyevo","name_ko":"오제로 모고토예보","featurecla":"lagoon"},"geometry":{"type":"Point","coordinates":[145.202667,72.285549]}},{"type":"Feature","properties":{"name":"Guba Gusinaya","name_ko":"구바 구시나야","featurecla":"bay"},"geometry":{"type":"Point","coordinates":[146.069349,71.9969045]}},{"type":"Feature","properties":{"name":"Bali Sea","name_ko":"발리해","featurecla":"sea"},"geometry":{"type":"Point","coordinates":[115.8108955,-8.005712500000001]}},{"type":"Feature","properties":{"name":"Davao Gulf","name_ko":"다바오 걸프","featurecla":"gulf"},"geometry":{"type":"Point","coordinates":[125.776178,6.6593485]}},{"type":"Feature","properties":{"name":"Halmahera Sea","name_ko":"할마헤라해","featurecla":"sea"},"geometry":{"type":"Point","coordinates":[129.332292,-0.5489580000000001]}},{"type":"Feature","properties":{"name":"Selat Bali","name_ko":"발리 해협","featurecla":"strait"},"geometry":{"type":"Point","coordinates":[114.76315550000001,-8.4795855]}},{"type":"Feature","properties":{"name":"Gulf of Tomini","name_ko":"토미니만","featurecla":"gulf"},"geometry":{"type":"Point","coordinates":[121.7553125,-0.439146]}},{"type":"Feature","properties":{"name":"Flores Sea","name_ko":"플로레스해","featurecla":"sea"},"geometry":{"type":"Point","coordinates":[119.96325200000001,-7.19167]}},{"type":"Feature","properties":{"name":"Sibuyan Sea","name_ko":"시부얀해","featurecla":"sea"},"geometry":{"type":"Point","coordinates":[122.39379249999999,12.508554499999999]}},{"type":"Feature","properties":{"name":"Selat Dampier","name_ko":"셀랏 댐피어","featurecla":"strait"},"geometry":{"type":"Point","coordinates":[130.9261125,-0.692102]}},{"type":"Feature","properties":{"name":"Gulf of Buli","name_ko":"걸프 오브 부리","featurecla":"gulf"},"geometry":{"type":"Point","coordinates":[129.11918,0.7284355]}},{"type":"Feature","properties":{"name":"Gulf of Kau","name_ko":"걸프 오브 카우","featurecla":"gulf"},"geometry":{"type":"Point","coordinates":[128.3349875,1.6010525]}},{"type":"Feature","properties":{"name":"Bohol Sea","name_ko":"보홀해","featurecla":"sea"},"geometry":{"type":"Point","coordinates":[124.35404299999999,9.505738000000001]}},{"type":"Feature","properties":{"name":"Surigao Strait","name_ko":"수리가오 해협","featurecla":"strait"},"geometry":{"type":"Point","coordinates":[125.398799,10.166879000000002]}},{"type":"Feature","properties":{"name":"Ragay Gulf","name_ko":"라게이 걸프","featurecla":"gulf"},"geometry":{"type":"Point","coordinates":[122.89247800000001,13.4567865]}},{"type":"Feature","properties":{"name":"Samar Sea","name_ko":"사마르해","featurecla":"sea"},"geometry":{"type":"Point","coordinates":[124.196458,12.0841595]}},{"type":"Feature","properties":{"name":"Tayabas Bay","name_ko":"타야바스 베이","featurecla":"bay"},"geometry":{"type":"Point","coordinates":[121.6180615,13.520481499999999]}},{"type":"Feature","properties":{"name":"Leyte Gulf","name_ko":"레이테 만","featurecla":"gulf"},"geometry":{"type":"Point","coordinates":[125.3623795,10.7643115]}},{"type":"Feature","properties":{"name":"Visayan Sea","name_ko":"비사얀해","featurecla":"sea"},"geometry":{"type":"Point","coordinates":[123.5391535,11.344194]}},{"type":"Feature","properties":{"name":"Savu Sea","name_ko":"사우해","featurecla":"sea"},"geometry":{"type":"Point","coordinates":[121.7997545,-9.564119]}},{"type":"Feature","properties":{"name":"Hecate Strait","name_ko":"헤카테 스트레이트","featurecla":"strait"},"geometry":{"type":"Point","coordinates":[-131.074978,53.838134999999994]}},{"type":"Feature","properties":{"name":"Cordova Bay","name_ko":"코르도바 베이","featurecla":"bay"},"geometry":{"type":"Point","coordinates":[-132.845786,55.146634000000006]}},{"type":"Feature","properties":{"name":"Murchison Sound","name_ko":"머치슨 사운드","featurecla":"sound"},"geometry":{"type":"Point","coordinates":[-69.4597805,77.622136]}},{"type":"Feature","properties":{"name":"Robeson Channel","name_ko":"로베슨 채널","featurecla":"channel"},"geometry":{"type":"Point","coordinates":[-59.4394765,81.847317]}},{"type":"Feature","properties":{"name":"Kennedy Channel","name_ko":"케네디 해협","featurecla":"channel"},"geometry":{"type":"Point","coordinates":[-65.9235165,80.8359605]}},{"type":"Feature","properties":{"name":"Canal Perigoso","name_ko":"캐널 페리고소","featurecla":"channel"},"geometry":{"type":"Point","coordinates":[-49.7405095,0.063222]}},{"type":"Feature","properties":{"name":"Canal do Sul","name_ko":"캐널 두 술","featurecla":"channel"},"geometry":{"type":"Point","coordinates":[-50.146455,-0.229618]}},{"type":"Feature","properties":{"name":"Canal do Norte","name_ko":"캐널 두 노르테","featurecla":"channel"},"geometry":{"type":"Point","coordinates":[-50.708405,0.3152165]}},{"type":"Feature","properties":{"name":"Øresund","name_ko":"외레순 해협","featurecla":"sound"},"geometry":{"type":"Point","coordinates":[12.59642,55.693008500000005]}},{"type":"Feature","properties":{"name":"Mecklenburger Bucht","name_ko":"메클렌부르크만","featurecla":"bay"},"geometry":{"type":"Point","coordinates":[11.6370895,54.395245]}},{"type":"Feature","properties":{"name":"Sargasso Sea","name_ko":"사르가소해","featurecla":"sea"},"geometry":{"type":"Point","coordinates":[-60.0418825,27.532192]}},{"type":"Feature","properties":{"name":"San Francisco Bay","name_ko":"샌프란시스코만","featurecla":"bay"},"geometry":{"type":"Point","coordinates":[-122.023876,37.8116585]}},{"type":"Feature","properties":{"name":"Monterey Bay","name_ko":"몬테레이 베이","featurecla":"bay"},"geometry":{"type":"Point","coordinates":[-121.9777225,36.781851]}},{"type":"Feature","properties":{"name":"Yangtze River","name_ko":"창 강","featurecla":"river"},"geometry":{"type":"Point","coordinates":[120.992576,31.5261865]}},{"type":"Feature","properties":{"name":"Columbia River","name_ko":"컬럼비아강","featurecla":"river"},"geometry":{"type":"Point","coordinates":[-123.646684,46.222230499999995]}},{"type":"Feature","properties":{"name":"Salish Sea","name_ko":"살리시 씨","featurecla":"sea"},"geometry":{"type":"Point","coordinates":[-123.738721,48.7423355]}},{"type":"Feature","properties":{"name":"Gulf of Anadyr'","name_ko":"걸프 오브 아나디르","featurecla":"gulf"},"geometry":{"type":"Point","coordinates":[-0.00005149999999787269,64.0276605]}},{"type":"Feature","properties":{"name":"Mediterranean Sea","name_ko":"지중해","featurecla":"sea"},"geometry":{"type":"Point","coordinates":[17.0485645,37.328536]}},{"type":"Feature","properties":{"name":"Ross Sea","name_ko":"로스해","featurecla":"sea"},"geometry":{"type":"Point","coordinates":[-0.00005149999999787269,-78.565592]}},{"type":"Feature","properties":{"name":"Coral Sea","name_ko":"산호해","featurecla":"sea"},"geometry":{"type":"Point","coordinates":[156.3080095,-19.409513]}},{"type":"Feature","properties":{"name":"Sea of Japan","name_ko":"동해","featurecla":"sea"},"geometry":{"type":"Point","coordinates":[135.2604315,43.0928075]}},{"type":"Feature","properties":{"name":"Korea Strait","name_ko":"대한해협","featurecla":"strait"},"geometry":{"type":"Point","coordinates":[128.649026,34.252804499999996]}}]}